STARLINK-3281           
1 50183U 21125AD  26033.29373212  .00001008  00000+0  81398-4 0  9992
2 50183  53.2179  48.0214 0001288  90.2566 269.8574 15.08841945231307
STARLINK-3279           
1 50185U 21125AF  26033.23853405  .00000197  00000+0  30469-4 0  9996
2 50185  53.2192  48.3059 0001527  96.8744 263.2422 15.08841816231251
STARLINK-3274           
1 50186U 21125AG  26032.45377072  .00001237  00000+0  95801-4 0  9998
2 50186  53.2176  61.7928 0001454  89.5614 270.5545 15.08837908230985
STARLINK-3272           
1 50187U 21125AH  26033.27624799  .00000143  00000+0  27057-4 0  9994
2 50187  53.2179  38.0978 0001398  90.2269 269.8883 15.08839558231376
STARLINK-3276           
1 50189U 21125AK  26033.32850186  .00024442  00000+0  14770-2 0  9997
2 50189  53.2164  47.6490 0004283  45.1772 314.9568 15.10562512231302
STARLINK-3268           
1 50190U 21125AL  26033.26521227 -.00000261  00000+0  17168-5 0  9994
2 50190  53.2201  38.1442 0001592  94.7380 265.3794 15.08837915231380
STARLINK-3273           
1 50191U 21125AM  26033.34065099 -.00000377  00000+0 -55668-5 0  9990
2 50191  53.2196  57.8067 0001629  97.4483 262.6694 15.08839244231117
STARLINK-3259           
1 50192U 21125AN  26033.26153051  .00000315  00000+0  37864-4 0  9995
2 50192  53.2196  38.1655 0001515  85.7793 274.3373 15.08845324231380
STARLINK-3261           
1 50193U 21125AP  26033.27257046  .00000653  00000+0  59117-4 0  9996
2 50193  53.2191  38.1154 0001212 110.3231 249.7892 15.08842662231436
STARLINK-3269           
1 50194U 21125AQ  26033.25002315  .00334342  00000+0  17612-2 0  9999
2 50194  53.2114 310.8922 0006484 151.0695 196.0292 15.79194935  5862
STARLINK-3266           
1 50195U 21125AR  26033.26888818  .00001393  00000+0  10561-3 0  9995
2 50195  53.2175  38.1315 0001523  82.7473 277.3692 15.08844839231381
STARLINK-3267           
1 50197U 21125AT  26033.25417273  .00001482  00000+0  11118-3 0  9997
2 50197  53.2181  38.1963 0001437  92.3134 267.8023 15.08847010231436
STARLINK-3264           
1 50198U 21125AU  26033.23945083 -.00000471  00000+0 -11528-4 0  9996
2 50198  53.2188  38.2619 0001430  92.7147 267.4009 15.08842648231380
STARLINK-3270           
1 50199U 21125AV  26033.28728603  .00000444  00000+0  45972-4 0  9997
2 50199  53.2180  38.0479 0001458  95.0928 265.0230 15.08841263231380
STARLINK-3235           
1 50200U 21125AW  26033.30936899  .00000529  00000+0  51353-4 0  9995
2 50200  53.2183  37.9086 0001435  88.3813 271.7343 15.08838526231401
STARLINK-3255           
1 50201U 21125AX  26033.04458133  .00069137  00000+0  53748-3 0  9996
2 50201  53.2035 317.6897 0003092 103.9005 256.2359 15.71151409232509
