[{"OBJECT_NAME":"STARLINK-3281","OBJECT_ID":"2021-125AD","EPOCH":"2026-02-02T07:02:58.455168","MEAN_MOTION":15.08841945,"ECCENTRICITY":0.00012881,"INCLINATION":53.2179,"RA_OF_ASC_NODE":48.0214,"ARG_OF_PERICENTER":90.2566,"MEAN_ANOMALY":269.8574,"EPHEMERIS_TYPE":0,"CLASSIFICATION_TYPE":"U","NORAD_CAT_ID":50183,"ELEMENT_SET_NO":999,"REV_AT_EPOCH":23130,"BSTAR":8.1398073e-5,"MEAN_MOTION_DOT":1.008e-5,"MEAN_MOTION_DDOT":0},{"OBJECT_NAME":"STARLINK-3279","OBJECT_ID":"2021-125AF","EPOCH":"2026-02-02T05:43:29.341920","MEAN_MOTION":15.08841816,"ECCENTRICITY":0.00015276,"INCLINATION":53.2192,"RA_OF_ASC_NODE":48.3059,"ARG_OF_PERICENTER":96.8744,"MEAN_ANOMALY":263.2422,"EPHEMERIS_TYPE":0,"CLASSIFICATION_TYPE":"U","NORAD_CAT_ID":50185,"ELEMENT_SET_NO":999,"REV_AT_EPOCH":23125,"BSTAR":3.0468872e-5,"MEAN_MOTION_DOT":1.97e-6,"MEAN_MOTION_DDOT":0},{"OBJECT_NAME":"STARLINK-3274","OBJECT_ID":"2021-125AG","EPOCH":"2026-02-01T10:53:25.790208","MEAN_MOTION":15.08837908,"ECCENTRICITY":0.00014545,"INCLINATION":53.2176,"RA_OF_ASC_NODE":61.7928,"ARG_OF_PERICENTER":89.5614,"MEAN_ANOMALY":270.5545,"EPHEMERIS_TYPE":0,"CLASSIFICATION_TYPE":"U","NORAD_CAT_ID":50186,"ELEMENT_SET_NO":999,"REV_AT_EPOCH":23098,"BSTAR":9.5800676e-5,"MEAN_MOTION_DOT":1.237e-5,"MEAN_MOTION_DDOT":0},{"OBJECT_NAME":"STARLINK-3272","OBJECT_ID":"2021-125AH","EPOCH":"2026-02-02T06:37:47.826336","MEAN_MOTION":15.08839558,"ECCENTRICITY":0.00013988,"INCLINATION":53.2179,"RA_OF_ASC_NODE":38.0978,"ARG_OF_PERICENTER":90.2269,"MEAN_ANOMALY":269.8883,"EPHEMERIS_TYPE":0,"CLASSIFICATION_TYPE":"U","NORAD_CAT_ID":50187,"ELEMENT_SET_NO":999,"REV_AT_EPOCH":23137,"BSTAR":2.7057143e-5,"MEAN_MOTION_DOT":1.43e-6,"MEAN_MOTION_DDOT":0},{"OBJECT_NAME":"STARLINK-3276","OBJECT_ID":"2021-125AK","EPOCH":"2026-02-02T07:53:02.560704","MEAN_MOTION":15.10562512,"ECCENTRICITY":0.00042833,"INCLINATION":53.2164,"RA_OF_ASC_NODE":47.649,"ARG_OF_PERICENTER":45.1772,"MEAN_ANOMALY":314.9568,"EPHEMERIS_TYPE":0,"CLASSIFICATION_TYPE":"U","NORAD_CAT_ID":50189,"ELEMENT_SET_NO":999,"REV_AT_EPOCH":23130,"BSTAR":0.0014769621,"MEAN_MOTION_DOT":0.00024442,"MEAN_MOTION_DDOT":0},{"OBJECT_NAME":"STARLINK-3268","OBJECT_ID":"2021-125AL","EPOCH":"2026-02-02T06:21:54.340128","MEAN_MOTION":15.08837915,"ECCENTRICITY":0.00015929,"INCLINATION":53.2201,"RA_OF_ASC_NODE":38.1442,"ARG_OF_PERICENTER":94.738,"MEAN_ANOMALY":265.3794,"EPHEMERIS_TYPE":0,"CLASSIFICATION_TYPE":"U","NORAD_CAT_ID":50190,"ELEMENT_SET_NO":999,"REV_AT_EPOCH":23138,"BSTAR":1.716752e-6,"MEAN_MOTION_DOT":-2.61e-6,"MEAN_MOTION_DDOT":0},{"OBJECT_NAME":"STARLINK-3273","OBJECT_ID":"2021-125AM","EPOCH":"2026-02-02T08:10:32.245536","MEAN_MOTION":15.08839244,"ECCENTRICITY":0.00016293,"INCLINATION":53.2196,"RA_OF_ASC_NODE":57.8067,"ARG_OF_PERICENTER":97.4483,"MEAN_ANOMALY":262.6694,"EPHEMERIS_TYPE":0,"CLASSIFICATION_TYPE":"U","NORAD_CAT_ID":50191,"ELEMENT_SET_NO":999,"REV_AT_EPOCH":23111,"BSTAR":-5.566834e-6,"MEAN_MOTION_DOT":-3.77e-6,"MEAN_MOTION_DDOT":0},{"OBJECT_NAME":"STARLINK-3259","OBJECT_ID":"2021-125AN","EPOCH":"2026-02-02T06:16:36.236064","MEAN_MOTION":15.08845324,"ECCENTRICITY":0.00015151,"INCLINATION":53.2196,"RA_OF_ASC_NODE":38.1655,"ARG_OF_PERICENTER":85.7793,"MEAN_ANOMALY":274.3373,"EPHEMERIS_TYPE":0,"CLASSIFICATION_TYPE":"U","NORAD_CAT_ID":50192,"ELEMENT_SET_NO":999,"REV_AT_EPOCH":23138,"BSTAR":3.7864288e-5,"MEAN_MOTION_DOT":3.15e-6,"MEAN_MOTION_DDOT":0},{"OBJECT_NAME":"STARLINK-3261","OBJECT_ID":"2021-125AP","EPOCH":"2026-02-02T06:32:30.087744","MEAN_MOTION":15.08842662,"ECCENTRICITY":0.00012129,"INCLINATION":53.2191,"RA_OF_ASC_NODE":38.1154,"ARG_OF_PERICENTER":110.3231,"MEAN_ANOMALY":249.7892,"EPHEMERIS_TYPE":0,"CLASSIFICATION_TYPE":"U","NORAD_CAT_ID":50193,"ELEMENT_SET_NO":999,"REV_AT_EPOCH":23143,"BSTAR":5.9117074e-5,"MEAN_MOTION_DOT":6.53e-6,"MEAN_MOTION_DDOT":0},{"OBJECT_NAME":"STARLINK-3269","OBJECT_ID":"2021-125AQ","EPOCH":"2026-02-02T06:00:02.000160","MEAN_MOTION":15.79194935,"ECCENTRICITY":0.00064848,"INCLINATION":53.2114,"RA_OF_ASC_NODE":310.8922,"ARG_OF_PERICENTER":151.0695,"MEAN_ANOMALY":196.0292,"EPHEMERIS_TYPE":0,"CLASSIFICATION_TYPE":"U","NORAD_CAT_ID":50194,"ELEMENT_SET_NO":999,"REV_AT_EPOCH":586,"BSTAR":0.0017611815,"MEAN_MOTION_DOT":0.00334342,"MEAN_MOTION_DDOT":0},{"OBJECT_NAME":"STARLINK-3266","OBJECT_ID":"2021-125AR","EPOCH":"2026-02-02T06:27:11.938752","MEAN_MOTION":15.08844839,"ECCENTRICITY":0.00015237,"INCLINATION":53.2175,"RA_OF_ASC_NODE":38.1315,"ARG_OF_PERICENTER":82.7473,"MEAN_ANOMALY":277.3692,"EPHEMERIS_TYPE":0,"CLASSIFICATION_TYPE":"U","NORAD_CAT_ID":50195,"ELEMENT_SET_NO":999,"REV_AT_EPOCH":23138,"BSTAR":0.00010560843,"MEAN_MOTION_DOT":1.393e-5,"MEAN_MOTION_DDOT":0},{"OBJECT_NAME":"STARLINK-3267","OBJECT_ID":"2021-125AT","EPOCH":"2026-02-02T06:06:00.523872","MEAN_MOTION":15.0884701,"ECCENTRICITY":0.00014378,"INCLINATION":53.2181,"RA_OF_ASC_NODE":38.1963,"ARG_OF_PERICENTER":92.3134,"MEAN_ANOMALY":267.8023,"EPHEMERIS_TYPE":0,"CLASSIFICATION_TYPE":"U","NORAD_CAT_ID":50197,"ELEMENT_SET_NO":999,"REV_AT_EPOCH":23143,"BSTAR":0.00011117774,"MEAN_MOTION_DOT":1.482e-5,"MEAN_MOTION_DDOT":0},{"OBJECT_NAME":"STARLINK-3264","OBJECT_ID":"2021-125AU","EPOCH":"2026-02-02T05:44:48.551712","MEAN_MOTION":15.08842648,"ECCENTRICITY":0.00014304,"INCLINATION":53.2188,"RA_OF_ASC_NODE":38.2619,"ARG_OF_PERICENTER":92.7147,"MEAN_ANOMALY":267.4009,"EPHEMERIS_TYPE":0,"CLASSIFICATION_TYPE":"U","NORAD_CAT_ID":50198,"ELEMENT_SET_NO":999,"REV_AT_EPOCH":23138,"BSTAR":-1.1528425e-5,"MEAN_MOTION_DOT":-4.71e-6,"MEAN_MOTION_DDOT":0},{"OBJECT_NAME":"STARLINK-3270","OBJECT_ID":"2021-125AV","EPOCH":"2026-02-02T06:53:41.512992","MEAN_MOTION":15.08841263,"ECCENTRICITY":0.0001458,"INCLINATION":53.218,"RA_OF_ASC_NODE":38.0479,"ARG_OF_PERICENTER":95.0928,"MEAN_ANOMALY":265.023,"EPHEMERIS_TYPE":0,"CLASSIFICATION_TYPE":"U","NORAD_CAT_ID":50199,"ELEMENT_SET_NO":999,"REV_AT_EPOCH":23138,"BSTAR":4.5971593e-5,"MEAN_MOTION_DOT":4.44e-6,"MEAN_MOTION_DDOT":0},{"OBJECT_NAME":"STARLINK-3235","OBJECT_ID":"2021-125AW","EPOCH":"2026-02-02T07:25:29.480736","MEAN_MOTION":15.08838526,"ECCENTRICITY":0.00014353,"INCLINATION":53.2183,"RA_OF_ASC_NODE":37.9086,"ARG_OF_PERICENTER":88.3813,"MEAN_ANOMALY":271.7343,"EPHEMERIS_TYPE":0,"CLASSIFICATION_TYPE":"U","NORAD_CAT_ID":50200,"ELEMENT_SET_NO":999,"REV_AT_EPOCH":23140,"BSTAR":5.1353461e-5,"MEAN_MOTION_DOT":5.29e-6,"MEAN_MOTION_DDOT":0},{"OBJECT_NAME":"STARLINK-3255","OBJECT_ID":"2021-125AX","EPOCH":"2026-02-02T01:04:11.826912","MEAN_MOTION":15.71151409,"ECCENTRICITY":0.00030927,"INCLINATION":53.2035,"RA_OF_ASC_NODE":317.6897,"ARG_OF_PERICENTER":103.9005,"MEAN_ANOMALY":256.2359,"EPHEMERIS_TYPE":0,"CLASSIFICATION_TYPE":"U","NORAD_CAT_ID":50201,"ELEMENT_SET_NO":999,"REV_AT_EPOCH":23250,"BSTAR":0.00053747924,"MEAN_MOTION_DOT":0.00069137,"MEAN_MOTION_DDOT":0}]
